0 COSMOS 2251 DEB
1 34862U 93036ACG 13281.63981198  .00039699  00000-0  37289-2 0  3164
2 34862 074.0137 346.3635 0046804 133.9062 350.0564 14.92910564241149
0 COSMOS 2251 DEB
1 34862U 93036ACG 13282.15835166  .00071219  00000-0  66454-2 0  3176
2 34862 074.0133 345.3196 0046675 132.6301 257.0763 14.92989506241211
0 COSMOS 2251 DEB
1 34862U 93036ACG 13283.16375455  .00059009  00000-0  54992-2 0  3186
2 34862 074.0143 343.2959 0046287 130.4108 261.0562 14.93122474241368
0 COSMOS 2251 DEB
1 34862U 93036ACG 13284.16888421  .00054463  00000-0  50698-2 0  3198
2 34862 074.0147 341.2716 0045923 128.1383 264.0101 14.93206568241512
0 COSMOS 2251 DEB
1 34862U 93036ACG 13286.33093617  .00040810  00000-0  37914-2 0  3214
2 34862 074.0150 336.9177 0045424 122.9450 007.2111 14.93384486241841
0 COSMOS 2251 DEB
1 34862U 93036ACG 13287.60265534  .00061457  00000-0  56775-2 0  3221
2 34862 074.0144 334.3558 0045410 119.8200 004.6811 14.93482878242036
0 COSMOS 2251 DEB
1 34862U 93036ACG 13288.19271963  .00081989  00000-0  75381-2 0  3236
2 34862 074.0145 333.1666 0044963 118.4045 297.3570 14.93570229242129
0 COSMOS 2251 DEB
1 34862U 93036ACG 13289.12598809  .00068261  00000-0  62679-2 0  3246
2 34862 074.0144 331.2860 0045087 116.2037 275.7267 14.93693110242250
0 COSMOS 2251 DEB
1 34862U 93036ACG 13289.54978042  .00070118  00000-0  64355-2 0  3251
2 34862 074.0139 330.4318 0044641 115.1316 034.7307 14.93715674242322
0 COSMOS 2251 DEB
1 34862U 93036ACG 13289.93623234  .00059822  00000-0  54928-2 0  3269
2 34862 074.0146 329.6530 0044627 114.2209 312.9017 14.93758732242388
0 COSMOS 2251 DEB
1 34862U 93036ACG 13290.87187565  .00051142  00000-0  46890-2 0  3273
2 34862 074.0130 327.7671 0044854 112.0731 304.5462 14.93858939242521
0 COSMOS 2251 DEB
1 34862U 93036ACG 13291.87608970  .00045921  00000-0  42057-2 0  3282
2 34862 074.0143 325.7436 0044389 109.5278 305.5452 14.93949659242678
0 COSMOS 2251 DEB
1 34862U 93036ACG 13293.14844802  .00048371  00000-0  44154-2 0  3293
2 34862 074.0131 323.1770 0044566 106.5969 308.8840 14.94058454242862
0 COSMOS 2251 DEB
1 34862U 93036ACG 13294.50517670  .00062056  00000-0  56392-2 0  3309
2 34862 074.0135 320.4404 0044317 103.3575 046.6835 14.94163098243067
0 COSMOS 2251 DEB
1 34862U 93036ACG 13295.50971291  .00066725  00000-0  60449-2 0  3319
2 34862 074.0140 318.4148 0044180 100.8712 050.5000 14.94260928243213
